[{"OBJECT_NAME":"ONEWEB-0320","OBJECT_ID":"2021-083E","EPOCH":"2026-05-17T03:05:19.540032","MEAN_MOTION":13.1868634,"ECCENTRICITY":0.0001771,"INCLINATION":87.9169,"RA_OF_ASC_NODE":341.6454,"ARG_OF_PERICENTER":86.1983,"MEAN_ANOMALY":273.9351,"EPHEMERIS_TYPE":0,"CLASSIFICATION_TYPE":"U","NORAD_CAT_ID":49190,"ELEMENT_SET_NO":999,"REV_AT_EPOCH":22588,"BSTAR":0.00022277,"MEAN_MOTION_DOT":1.01e-06,"MEAN_MOTION_DDOT":0.0},{"OBJECT_NAME":"ONEWEB-0321","OBJECT_ID":"2021-083F","EPOCH":"2026-05-17T03:22:40.509696","MEAN_MOTION":13.20763734,"ECCENTRICITY":0.000162,"INCLINATION":87.9165,"RA_OF_ASC_NODE":280.6265,"ARG_OF_PERICENTER":92.0934,"MEAN_ANOMALY":268.0384,"EPHEMERIS_TYPE":0,"CLASSIFICATION_TYPE":"U","NORAD_CAT_ID":49191,"ELEMENT_SET_NO":999,"REV_AT_EPOCH":23273,"BSTAR":0.002058,"MEAN_MOTION_DOT":8.5e-06,"MEAN_MOTION_DDOT":0.0},{"OBJECT_NAME":"ONEWEB-0322","OBJECT_ID":"2021-083G","EPOCH":"2026-05-16T22:08:30.981120","MEAN_MOTION":13.13470664,"ECCENTRICITY":0.0001688,"INCLINATION":87.894,"RA_OF_ASC_NODE":326.4659,"ARG_OF_PERICENTER":75.8946,"MEAN_ANOMALY":284.2371,"EPHEMERIS_TYPE":0,"CLASSIFICATION_TYPE":"U","NORAD_CAT_ID":49192,"ELEMENT_SET_NO":999,"REV_AT_EPOCH":22681,"BSTAR":-0.0004264,"MEAN_MOTION_DOT":-1.43e-06,"MEAN_MOTION_DDOT":0.0},{"OBJECT_NAME":"ONEWEB-0324","OBJECT_ID":"2021-083H","EPOCH":"2026-05-17T00:37:12.667584","MEAN_MOTION":13.18685326,"ECCENTRICITY":0.0001679,"INCLINATION":87.918,"RA_OF_ASC_NODE":341.6498,"ARG_OF_PERICENTER":91.1045,"MEAN_ANOMALY":269.028,"EPHEMERIS_TYPE":0,"CLASSIFICATION_TYPE":"U","NORAD_CAT_ID":49193,"ELEMENT_SET_NO":999,"REV_AT_EPOCH":22589,"BSTAR":4.7041e-05,"MEAN_MOTION_DOT":3.1e-07,"MEAN_MOTION_DDOT":0.0},{"OBJECT_NAME":"ONEWEB-0325","OBJECT_ID":"2021-083J","EPOCH":"2026-05-17T02:31:19.183296","MEAN_MOTION":13.18685737,"ECCENTRICITY":0.0001878,"INCLINATION":87.9168,"RA_OF_ASC_NODE":341.6457,"ARG_OF_PERICENTER":85.5325,"MEAN_ANOMALY":274.6021,"EPHEMERIS_TYPE":0,"CLASSIFICATION_TYPE":"U","NORAD_CAT_ID":49194,"ELEMENT_SET_NO":999,"REV_AT_EPOCH":22591,"BSTAR":3.5939e-05,"MEAN_MOTION_DOT":2.7e-07,"MEAN_MOTION_DDOT":0.0},{"OBJECT_NAME":"ONEWEB-0326","OBJECT_ID":"2021-083K","EPOCH":"2026-05-17T02:53:22.413120","MEAN_MOTION":13.18685103,"ECCENTRICITY":0.0002121,"INCLINATION":87.9175,"RA_OF_ASC_NODE":341.6377,"ARG_OF_PERICENTER":90.7742,"MEAN_ANOMALY":269.3633,"EPHEMERIS_TYPE":0,"CLASSIFICATION_TYPE":"U","NORAD_CAT_ID":49195,"ELEMENT_SET_NO":999,"REV_AT_EPOCH":22590,"BSTAR":1.9252e-05,"MEAN_MOTION_DOT":2.1e-07,"MEAN_MOTION_DDOT":0.0},{"OBJECT_NAME":"ONEWEB-0327","OBJECT_ID":"2021-083L","EPOCH":"2026-05-16T23:14:27.091968","MEAN_MOTION":13.18685296,"ECCENTRICITY":0.0002277,"INCLINATION":87.9165,"RA_OF_ASC_NODE":341.6749,"ARG_OF_PERICENTER":89.0193,"MEAN_ANOMALY":271.12,"EPHEMERIS_TYPE":0,"CLASSIFICATION_TYPE":"U","NORAD_CAT_ID":49196,"ELEMENT_SET_NO":999,"REV_AT_EPOCH":22590,"BSTAR":-1.3552e-05,"MEAN_MOTION_DOT":8e-08,"MEAN_MOTION_DDOT":0.0},{"OBJECT_NAME":"ONEWEB-0328","OBJECT_ID":"2021-083M","EPOCH":"2026-05-16T23:43:35.220576","MEAN_MOTION":13.13470728,"ECCENTRICITY":0.0001682,"INCLINATION":87.8953,"RA_OF_ASC_NODE":326.4231,"ARG_OF_PERICENTER":94.1107,"MEAN_ANOMALY":266.0215,"EPHEMERIS_TYPE":0,"CLASSIFICATION_TYPE":"U","NORAD_CAT_ID":49197,"ELEMENT_SET_NO":999,"REV_AT_EPOCH":22680,"BSTAR":0.00044787,"MEAN_MOTION_DOT":1.76e-06,"MEAN_MOTION_DDOT":0.0},{"OBJECT_NAME":"ONEWEB-0331","OBJECT_ID":"2021-083N","EPOCH":"2026-05-17T02:43:27.607872","MEAN_MOTION":13.1868537,"ECCENTRICITY":0.0002045,"INCLINATION":87.9179,"RA_OF_ASC_NODE":341.6328,"ARG_OF_PERICENTER":95.5444,"MEAN_ANOMALY":264.5921,"EPHEMERIS_TYPE":0,"CLASSIFICATION_TYPE":"U","NORAD_CAT_ID":49198,"ELEMENT_SET_NO":999,"REV_AT_EPOCH":22591,"BSTAR":8.5181e-05,"MEAN_MOTION_DOT":4.6e-07,"MEAN_MOTION_DDOT":0.0},{"OBJECT_NAME":"ONEWEB-0333","OBJECT_ID":"2021-083P","EPOCH":"2026-05-16T18:07:10.380864","MEAN_MOTION":13.13471592,"ECCENTRICITY":0.0001805,"INCLINATION":87.8944,"RA_OF_ASC_NODE":326.4989,"ARG_OF_PERICENTER":89.0447,"MEAN_ANOMALY":271.0889,"EPHEMERIS_TYPE":0,"CLASSIFICATION_TYPE":"U","NORAD_CAT_ID":49199,"ELEMENT_SET_NO":999,"REV_AT_EPOCH":22678,"BSTAR":0.0008312899999999999,"MEAN_MOTION_DOT":3.16e-06,"MEAN_MOTION_DDOT":0.0},{"OBJECT_NAME":"ONEWEB-0334","OBJECT_ID":"2021-083Q","EPOCH":"2026-05-16T07:48:07.255008","MEAN_MOTION":13.20727942,"ECCENTRICITY":0.0001369,"INCLINATION":87.9157,"RA_OF_ASC_NODE":280.8019,"ARG_OF_PERICENTER":63.5704,"MEAN_ANOMALY":296.557,"EPHEMERIS_TYPE":0,"CLASSIFICATION_TYPE":"U","NORAD_CAT_ID":49200,"ELEMENT_SET_NO":999,"REV_AT_EPOCH":23258,"BSTAR":0.0011214,"MEAN_MOTION_DOT":4.69e-06,"MEAN_MOTION_DDOT":0.0},{"OBJECT_NAME":"ONEWEB-0335","OBJECT_ID":"2021-083R","EPOCH":"2026-05-16T23:28:57.942624","MEAN_MOTION":13.13468939,"ECCENTRICITY":0.000192,"INCLINATION":87.8943,"RA_OF_ASC_NODE":326.4508,"ARG_OF_PERICENTER":94.709,"MEAN_ANOMALY":265.4258,"EPHEMERIS_TYPE":0,"CLASSIFICATION_TYPE":"U","NORAD_CAT_ID":49201,"ELEMENT_SET_NO":999,"REV_AT_EPOCH":22682,"BSTAR":0.0009572000000000001,"MEAN_MOTION_DOT":3.62e-06,"MEAN_MOTION_DDOT":0.0},{"OBJECT_NAME":"ONEWEB-0336","OBJECT_ID":"2021-083S","EPOCH":"2026-05-16T19:08:07.690272","MEAN_MOTION":13.13471899,"ECCENTRICITY":0.0001989,"INCLINATION":87.8939,"RA_OF_ASC_NODE":326.4826,"ARG_OF_PERICENTER":101.557,"MEAN_ANOMALY":258.5783,"EPHEMERIS_TYPE":0,"CLASSIFICATION_TYPE":"U","NORAD_CAT_ID":49202,"ELEMENT_SET_NO":999,"REV_AT_EPOCH":22679,"BSTAR":-0.00042614000000000004,"MEAN_MOTION_DOT":-1.43e-06,"MEAN_MOTION_DDOT":0.0},{"OBJECT_NAME":"ONEWEB-0337","OBJECT_ID":"2021-083T","EPOCH":"2026-05-16T23:01:57.323136","MEAN_MOTION":13.13471557,"ECCENTRICITY":0.000177,"INCLINATION":87.8938,"RA_OF_ASC_NODE":326.4575,"ARG_OF_PERICENTER":98.1254,"MEAN_ANOMALY":262.0076,"EPHEMERIS_TYPE":0,"CLASSIFICATION_TYPE":"U","NORAD_CAT_ID":49203,"ELEMENT_SET_NO":999,"REV_AT_EPOCH":22681,"BSTAR":0.00025903,"MEAN_MOTION_DOT":1.07e-06,"MEAN_MOTION_DDOT":0.0},{"OBJECT_NAME":"ONEWEB-0338","OBJECT_ID":"2021-083U","EPOCH":"2026-05-17T03:10:35.711328","MEAN_MOTION":13.20801175,"ECCENTRICITY":0.0002149,"INCLINATION":87.9153,"RA_OF_ASC_NODE":280.645,"ARG_OF_PERICENTER":87.15,"MEAN_ANOMALY":272.9879,"EPHEMERIS_TYPE":0,"CLASSIFICATION_TYPE":"U","NORAD_CAT_ID":49204,"ELEMENT_SET_NO":999,"REV_AT_EPOCH":23271,"BSTAR":-0.007878699999999999,"MEAN_MOTION_DOT":-3.191e-05,"MEAN_MOTION_DDOT":0.0},{"OBJECT_NAME":"ONEWEB-0339","OBJECT_ID":"2021-083V","EPOCH":"2026-05-16T23:14:19.987296","MEAN_MOTION":13.1347156,"ECCENTRICITY":0.0001573,"INCLINATION":87.894,"RA_OF_ASC_NODE":326.4473,"ARG_OF_PERICENTER":83.2072,"MEAN_ANOMALY":276.9237,"EPHEMERIS_TYPE":0,"CLASSIFICATION_TYPE":"U","NORAD_CAT_ID":49205,"ELEMENT_SET_NO":999,"REV_AT_EPOCH":22679,"BSTAR":0.00083754,"MEAN_MOTION_DOT":3.19e-06,"MEAN_MOTION_DDOT":0.0}]