ONEWEB-0320             
1 49190U 21083E   26137.12869838  .00000101  00000+0  22277-3 0  9995
2 49190  87.9169 341.6454 0001771  86.1983 273.9351 13.18686340225888
ONEWEB-0321             
1 49191U 21083F   26137.14074664  .00000850  00000+0  20580-2 0  9998
2 49191  87.9165 280.6265 0001620  92.0934 268.0384 13.20763734232731
ONEWEB-0322             
1 49192U 21083G   26136.92258080 -.00000143  00000+0 -42640-3 0  9999
2 49192  87.8940 326.4659 0001688  75.8946 284.2371 13.13470664226811
ONEWEB-0324             
1 49193U 21083H   26137.02584106  .00000031  00000+0  47041-4 0  9998
2 49193  87.9180 341.6498 0001679  91.1045 269.0280 13.18685326225895
ONEWEB-0325             
1 49194U 21083J   26137.10508314  .00000027  00000+0  35939-4 0  9993
2 49194  87.9168 341.6457 0001878  85.5325 274.6021 13.18685737225910
ONEWEB-0326             
1 49195U 21083K   26137.12039830  .00000021  00000+0  19252-4 0  9992
2 49195  87.9175 341.6377 0002121  90.7742 269.3633 13.18685103225909
ONEWEB-0327             
1 49196U 21083L   26136.96836912  .00000008  00000+0 -13552-4 0  9993
2 49196  87.9165 341.6749 0002277  89.0193 271.1200 13.18685296225909
ONEWEB-0328             
1 49197U 21083M   26136.98860209  .00000176  00000+0  44787-3 0  9990
2 49197  87.8953 326.4231 0001682  94.1107 266.0215 13.13470728226808
ONEWEB-0331             
1 49198U 21083N   26137.11351398  .00000046  00000+0  85181-4 0  9991
2 49198  87.9179 341.6328 0002045  95.5444 264.5921 13.18685370225913
ONEWEB-0333             
1 49199U 21083P   26136.75498126  .00000316  00000+0  83129-3 0  9991
2 49199  87.8944 326.4989 0001805  89.0447 271.0889 13.13471592226787
ONEWEB-0334             
1 49200U 21083Q   26136.32508397  .00000469  00000+0  11214-2 0  9993
2 49200  87.9157 280.8019 0001369  63.5704 296.5570 13.20727942232587
ONEWEB-0335             
1 49201U 21083R   26136.97844841  .00000362  00000+0  95720-3 0  9999
2 49201  87.8943 326.4508 0001920  94.7090 265.4258 13.13468939226825
ONEWEB-0336             
1 49202U 21083S   26136.79731123 -.00000143  00000+0 -42614-3 0  9991
2 49202  87.8939 326.4826 0001989 101.5570 258.5783 13.13471899226790
ONEWEB-0337             
1 49203U 21083T   26136.95969124  .00000107  00000+0  25903-3 0  9994
2 49203  87.8938 326.4575 0001770  98.1254 262.0076 13.13471557226818
ONEWEB-0338             
1 49204U 21083U   26137.13235777 -.00003191  00000+0 -78787-2 0  9991
2 49204  87.9153 280.6450 0002149  87.1500 272.9879 13.20801175232713
ONEWEB-0339             
1 49205U 21083V   26136.96828689  .00000319  00000+0  83754-3 0  9990
2 49205  87.8940 326.4473 0001573  83.2072 276.9237 13.13471560226798
